[{"OBJECT_NAME":"STARLINK-4283","OBJECT_ID":"2022-076AG","EPOCH":"2026-03-09T10:23:06.250272","MEAN_MOTION":15.08838531,"ECCENTRICITY":0.00011115,"INCLINATION":53.2179,"RA_OF_ASC_NODE":85.2732,"ARG_OF_PERICENTER":91.6453,"MEAN_ANOMALY":268.4667,"EPHEMERIS_TYPE":0,"CLASSIFICATION_TYPE":"U","NORAD_CAT_ID":53016,"ELEMENT_SET_NO":999,"REV_AT_EPOCH":20294,"BSTAR":-3.9622039e-5,"MEAN_MOTION_DOT":-9.18e-6,"MEAN_MOTION_DDOT":0},{"OBJECT_NAME":"PSLV R\/B","OBJECT_ID":"2010-035F","EPOCH":"2026-03-09T21:32:02.806944","MEAN_MOTION":15.11637156,"ECCENTRICITY":0.00120112,"INCLINATION":97.9796,"RA_OF_ASC_NODE":355.2302,"ARG_OF_PERICENTER":197.9598,"MEAN_ANOMALY":162.1208,"EPHEMERIS_TYPE":0,"CLASSIFICATION_TYPE":"U","NORAD_CAT_ID":36800,"ELEMENT_SET_NO":999,"REV_AT_EPOCH":85407,"BSTAR":0.00037264097,"MEAN_MOTION_DOT":6.275e-5,"MEAN_MOTION_DDOT":0}]
